NORAD_CAT_ID,OBJECT_NAME,OBJECT_TYPE,EPOCH,MEAN_MOTION,ECCENTRICITY,INCLINATION,RA_OF_ASC_NODE,ARG_OF_PERICENTER,MEAN_ANOMALY,BSTAR,MEAN_MOTION_DOT,MEAN_MOTION_DDOT,TLE_LINE0,TLE_LINE1,TLE_LINE2,SEMIMAJOR_AXIS,PERIOD,APOGEE,PERIGEE,DECAYED
51464.0,STARLINK-3189,PAYLOAD,2023-02-22 12:22:11,15.08838189,0.000117,53.2162,227.3758,86.0649,274.0477,3.1887e-05,2.2e-06,0.0,0 STARLINK-3189,1 51464U 22010J   23053.51540765  .00000220  00000-0  31887-4 0  9996,2 51464  53.2162 227.3758 0001170  86.0649 274.0477 15.08838189 59575,6917.886,95.438,540.56,538.942,0.0
51464.0,STARLINK-3189,PAYLOAD,2023-02-22 18:43:43,15.08839157,0.0001179,53.2163,226.1864,86.1373,273.9754,3.1687e-05,2.16e-06,0.0,0 STARLINK-3189,1 51464U 22010J   23053.78036687  .00000216  00000-0  31687-4 0  9991,2 51464  53.2163 226.1864 0001179  86.1373 273.9754 15.08839157 59566,6917.883,95.438,540.564,538.932,0.0
51464.0,STARLINK-3189,PAYLOAD,2023-02-23 04:16:03,15.0883252,0.0001104,53.2167,224.4022,84.527,275.5848,-1.1157e-05,-4.65e-06,0.0,0 STARLINK-3189,1 51464U 22010J   23054.17781314 -.00000465  00000-0 -11157-4 0  9997,2 51464  53.2167 224.4022 0001104  84.5270 275.5848 15.08832520 59629,6917.903,95.438,540.532,539.005,0.0
51464.0,STARLINK-3189,PAYLOAD,2023-02-23 12:12:59,15.08828514,0.0001157,53.2176,222.9155,90.8224,269.2901,-2.7022e-05,-7.18e-06,0.0,0 STARLINK-3189,1 51464U 22010J   23054.50901760 -.00000718  00000-0 -27022-4 0  9992,2 51464  53.2176 222.9155 0001157  90.8224 269.2901 15.08828514 59725,6917.915,95.438,540.581,538.98,0.0
51464.0,STARLINK-3189,PAYLOAD,2023-02-23 20:09:54,15.08834066,0.0001157,53.2172,221.4283,90.6919,269.4205,1.3135e-05,-7.9e-07,0.0,0 STARLINK-3189,1 51464U 22010J   23054.84021478 -.00000079  00000-0  13135-4 0  9997,2 51464  53.2172 221.4283 0001157  90.6919 269.4205 15.08834066 59779,6917.899,95.438,540.564,538.963,0.0
51464.0,STARLINK-3189,PAYLOAD,2023-02-24 04:06:49,15.08842714,0.0001164,53.2152,219.94,81.3154,278.797,1.6111e-05,-3.1e-07,0.0,0 STARLINK-3189,1 51464U 22010J   23055.17140901 -.00000031  00000-0  16111-4 0  9992,2 51464  53.2152 219.9400 0001164  81.3154 278.7970 15.08842714 59777,6917.872,95.437,540.542,538.932,0.0
51464.0,STARLINK-3189,PAYLOAD,2023-02-24 10:28:22,15.08839513,0.0001087,53.2154,218.7506,84.0042,276.1074,9.5229e-05,1.228e-05,0.0,0 STARLINK-3189,1 51464U 22010J   23055.43636896  .00001228  00000-0  95229-4 0  9999,2 51464  53.2154 218.7506 0001087  84.0042 276.1074 15.08839513 59863,6917.882,95.438,540.499,538.995,0.0
51464.0,STARLINK-3189,PAYLOAD,2023-02-24 20:00:40,15.08846254,0.0001242,53.2153,216.9663,82.2871,277.8262,0.00016796,2.387e-05,0.0,0 STARLINK-3189,1 51464U 22010J   23055.83380246  .00002387  00000-0  16796-3 0  9996,2 51464  53.2153 216.9663 0001242  82.2871 277.8262 15.08846254 59923,6917.861,95.437,540.585,538.867,0.0
51464.0,STARLINK-3189,PAYLOAD,2023-02-25 03:57:36,15.08838922,0.000128,53.216,215.4798,82.2142,277.8996,0.00014464,2.015e-05,0.0,0 STARLINK-3189,1 51464U 22010J   23056.16500812  .00002015  00000-0  14464-3 0  9994,2 51464  53.2160 215.4798 0001280  82.2142 277.8996 15.08838922 59979,6917.884,95.438,540.634,538.863,0.0
51464.0,STARLINK-3189,PAYLOAD,2023-02-25 16:40:42,15.08833602,0.0001186,53.2157,213.1012,81.7609,278.3518,0.0001059,1.398e-05,0.0,0 STARLINK-3189,1 51464U 22010J   23056.69493377  .00001398  00000-0  10590-3 0  9998,2 51464  53.2157 213.1012 0001186  81.7609 278.3518 15.08833602 60008,6917.9,95.438,540.585,538.944,0.0
51464.0,STARLINK-3189,PAYLOAD,2023-02-25 21:26:51,15.0884482,0.0001297,53.2155,212.207,89.855,270.2591,0.00012119,1.642e-05,0.0,0 STARLINK-3189,1 51464U 22010J   23056.89364657  .00001642  00000-0  12119-3 0  9999,2 51464  53.2155 212.2070 0001297  89.8550 270.2591 15.08844820 60081,6917.866,95.437,540.628,538.833,0.0
51464.0,STARLINK-3189,PAYLOAD,2023-02-26 03:48:23,15.08843087,0.0001253,53.216,211.0176,91.88,268.2336,5.4865e-05,5.85e-06,0.0,0 STARLINK-3189,1 51464U 22010J   23057.15860861  .00000585  00000-0  54865-4 0  9997,2 51464  53.2160 211.0176 0001253  91.8800 268.2336 15.08843087 60071,6917.871,95.437,540.603,538.869,0.0
51464.0,STARLINK-3189,PAYLOAD,2023-02-26 10:09:56,15.08843405,0.0001149,53.2163,209.828,92.7691,267.3433,8.6521e-05,1.09e-05,0.0,0 STARLINK-3189,1 51464U 22010J   23057.42356702  .00001090  00000-0  86521-4 0  9997,2 51464  53.2163 209.8280 0001149  92.7691 267.3433 15.08843405 60169,6917.87,95.437,540.53,538.94,0.0
51464.0,STARLINK-3189,PAYLOAD,2023-02-26 16:31:27,15.08854175,0.0001262,53.2153,208.6397,88.5841,271.5295,0.00010449,1.376e-05,0.0,0 STARLINK-3189,1 51464U 22010J   23057.68851832  .00001376  00000-0  10449-3 0  9991,2 51464  53.2153 208.6397 0001262  88.5841 271.5295 15.08854175 60158,6917.837,95.437,540.575,538.829,0.0
51464.0,STARLINK-3189,PAYLOAD,2023-02-27 10:00:43,15.08842724,0.0001378,53.2164,205.3671,92.7399,267.3751,7.8946e-05,9.69e-06,0.0,0 STARLINK-3189,1 51464U 22010J   23058.41716436  .00000969  00000-0  78946-4 0  9997,2 51464  53.2164 205.3671 0001378  92.7399 267.3751 15.08842724 60261,6917.872,95.437,540.69,538.784,0.0
51464.0,STARLINK-3189,PAYLOAD,2023-02-27 17:57:37,15.08859497,0.0001387,53.2164,203.8822,94.8152,265.2999,0.00014538,2.028e-05,0.0,0 STARLINK-3189,1 51464U 22010J   23058.74835149  .00002028  00000-0  14538-3 0  9990,2 51464  53.2164 203.8822 0001387  94.8152 265.2999 15.08859497 60314,6917.821,95.436,540.645,538.726,0.0
51464.0,STARLINK-3189,PAYLOAD,2023-02-27 19:33:00,15.08862811,0.0001331,53.2156,203.5846,94.0814,266.033,0.00027165,4.041e-05,0.0,0 STARLINK-3189,1 51464U 22010J   23058.81459276  .00004041  00000-0  27165-3 0  9998,2 51464  53.2156 203.5846 0001331  94.0814 266.0330 15.08862811 60372,6917.811,95.436,540.596,538.755,0.0
51464.0,STARLINK-3189,PAYLOAD,2023-02-28 13:02:17,15.08827148,0.0001507,53.2147,200.3144,95.4256,264.6908,-0.00021598,-3.722e-05,0.0,0 STARLINK-3189,1 51464U 22010J   23059.54325330 -.00003722  00000-0 -21598-3 0  9993,2 51464  53.2147 200.3144 0001507  95.4256 264.6908 15.08827148 60489,6917.92,95.438,540.827,538.742,0.0
51464.0,STARLINK-3189,PAYLOAD,2023-02-28 16:13:03,15.08826319,0.0001301,53.2148,199.7197,78.7851,281.3287,-0.0002037,-3.527e-05,0.0,0 STARLINK-3189,1 51464U 22010J   23059.67573491 -.00003527  00000-0 -20370-3 0  9990,2 51464  53.2148 199.7197 0001301  78.7851 281.3287 15.08826319 60458,6917.922,95.438,540.687,538.887,0.0
51464.0,STARLINK-3189,PAYLOAD,2023-02-28 20:59:13,15.08832206,0.0001445,53.2162,198.8275,84.8027,275.313,-8.1287e-05,-1.581e-05,0.0,0 STARLINK-3189,1 51464U 22010J   23059.87445788 -.00001581  00000-0 -81287-4 0  9992,2 51464  53.2162 198.8275 0001445  84.8027 275.3130 15.08832206 60534,6917.904,95.438,540.769,538.77,0.0
51464.0,STARLINK-3189,PAYLOAD,2023-03-01 17:39:13,15.08840555,0.000165,53.2164,194.9645,91.514,268.6041,0.00012499,1.702e-05,0.0,0 STARLINK-3189,1 51464U 22010J   23060.73557647  .00001702  00000-0  12499-3 0  9998,2 51464  53.2164 194.9645 0001650  91.5140 268.6041 15.08840555 60614,6917.879,95.438,540.885,538.602,0.0
51464.0,STARLINK-3189,PAYLOAD,2023-03-01 20:49:59,15.08846037,0.0001362,53.2151,194.3668,83.8844,276.2304,0.00022393,3.278e-05,0.0,0 STARLINK-3189,1 51464U 22010J   23060.86805237  .00003278  00000-0  22393-3 0  9997,2 51464  53.2151 194.3668 0001362  83.8844 276.2304 15.08846037 60689,6917.862,95.437,540.669,538.785,0.0
51464.0,STARLINK-3189,PAYLOAD,2023-03-02 01:36:09,15.08828731,9.02e-05,53.2155,193.4747,96.478,263.6315,-0.00013794,-2.482e-05,0.0,0 STARLINK-3189,1 51464U 22010J   23061.06677820 -.00002482  00000-0 -13794-3 0  9998,2 51464  53.2155 193.4747 0000902  96.4780 263.6315 15.08828731 60660,6917.915,95.438,540.404,539.156,0.0
51464.0,STARLINK-3189,PAYLOAD,2023-03-02 17:30:01,15.08844467,0.000159,53.2162,190.5026,86.7944,273.323,0.00034372,5.187e-05,0.0,0 STARLINK-3189,1 51464U 22010J   23061.72917871  .00005187  00000-0  34372-3 0  9992,2 51464  53.2162 190.5026 0001590  86.7944 273.3230 15.08844467 60819,6917.867,95.437,540.832,538.632,0.0
51464.0,STARLINK-3189,PAYLOAD,2023-03-03 10:59:14,15.08853238,0.0001755,53.2172,187.2322,105.1275,254.9911,0.00022714,3.33e-05,0.0,0 STARLINK-3189,1 51464U 22010J   23062.45781187  .00003330  00000-0  22714-3 0  9997,2 51464  53.2172 187.2322 0001755 105.1275 254.9911 15.08853238 60871,6917.84,95.437,540.919,538.491,0.0
51464.0,STARLINK-3189,PAYLOAD,2023-03-03 12:34:37,15.08857264,0.0001601,53.2175,186.9349,103.088,257.0291,0.00034581,5.222e-05,0.0,0 STARLINK-3189,1 51464U 22010J   23062.52404955  .00005222  00000-0  34581-3 0  9997,2 51464  53.2175 186.9349 0001601 103.0880 257.0291 15.08857264 60933,6917.828,95.436,540.8,538.585,0.0
51464.0,STARLINK-3189,PAYLOAD,2023-03-03 20:31:32,15.08884839,0.0001061,53.2152,185.4467,97.681,262.4303,0.00075655,0.00011788,0.0,0 STARLINK-3189,1 51464U 22010J   23062.85523529  .00011788  00000-0  75655-3 0  9993,2 51464  53.2152 185.4467 0001061  97.6810 262.4303 15.08884839 60936,6917.743,95.435,540.342,538.874,0.0
51464.0,STARLINK-3189,PAYLOAD,2023-03-04 07:39:15,15.08836057,0.0001022,53.2148,183.3622,91.1047,269.0063,-0.00029161,-4.925e-05,0.0,0 STARLINK-3189,1 51464U 22010J   23063.31892893 -.00004925  00000-0 -29161-3 0  9996,2 51464  53.2148 183.3622 0001022  91.1047 269.0063 15.08836057 61003,6917.892,95.438,540.464,539.05,0.0
51464.0,STARLINK-3189,PAYLOAD,2023-03-04 12:25:24,15.08852841,0.0001759,53.2165,182.4761,76.4518,283.667,9.517e-05,1.227e-05,0.0,0 STARLINK-3189,1 51464U 22010J   23063.51764415  .00001227  00000-0  95170-4 0  9990,2 51464  53.2165 182.4761 0001759  76.4518 283.6670 15.08852841 61085,6917.841,95.437,540.923,538.489,0.0
51464.0,STARLINK-3189,PAYLOAD,2023-03-04 14:00:47,15.08855395,0.0001694,53.2147,182.1771,75.1194,284.9986,0.00015379,2.161e-05,0.0,0 STARLINK-3189,1 51464U 22010J   23063.58388316  .00002161  00000-0  15379-3 0  9999,2 51464  53.2147 182.1771 0001694  75.1194 284.9986 15.08855395 61044,6917.833,95.437,540.87,538.526,0.0
